NORAD_CAT_ID,OBJECT_NAME,OBJECT_TYPE,EPOCH,MEAN_MOTION,ECCENTRICITY,INCLINATION,RA_OF_ASC_NODE,ARG_OF_PERICENTER,MEAN_ANOMALY,BSTAR,MEAN_MOTION_DOT,MEAN_MOTION_DDOT,TLE_LINE0,TLE_LINE1,TLE_LINE2,SEMIMAJOR_AXIS,PERIOD,APOGEE,PERIGEE,DECAYED
55677.0,STARLINK-5324,PAYLOAD,2024-03-27 20:39:59,14.98336074,0.0002994,69.9989,139.1883,276.9429,83.1389,1.4427e-07,-9.1e-07,0.0,0 STARLINK-5324,1 55677U 23021BB  24087.86110099 -.00000091  00000-0  14427-6 0  9998,2 55677  69.9989 139.1883 0002994 276.9429  83.1389 14.98336074 62856,6950.174,96.107,574.12,569.958,0.0
55677.0,STARLINK-5324,PAYLOAD,2024-03-28 12:41:19,14.9833636,0.000296,69.9991,137.5071,270.5484,89.5336,0.00029987,3.487e-05,0.0,0 STARLINK-5324,1 55677U 23021BB  24088.52869245  .00003487  00000-0  29987-3 0  9991,2 55677  69.9991 137.5071 0002960 270.5484  89.5336 14.98336360 63259,6950.173,96.107,574.095,569.981,0.0
55677.0,STARLINK-5324,PAYLOAD,2024-03-28 20:42:00,14.98328702,0.0002555,70.0007,136.6639,275.1196,84.9672,0.00015516,1.759e-05,0.0,0 STARLINK-5324,1 55677U 23021BB  24088.86250188  .00001759  00000-0  15516-3 0  9991,2 55677  70.0007 136.6639 0002555 275.1196  84.9672 14.98328702 63007,6950.197,96.107,573.838,570.286,0.0
55677.0,STARLINK-5324,PAYLOAD,2024-03-29 12:43:21,14.98317763,0.0002883,69.9992,134.9821,270.8464,89.2364,0.00013532,1.521e-05,0.0,0 STARLINK-5324,1 55677U 23021BB  24089.53011030  .00001521  00000-0  13532-3 0  9990,2 55677  69.9992 134.9821 0002883 270.8464  89.2364 14.98317763 63107,6950.231,96.108,574.099,570.092,0.0
55677.0,STARLINK-5324,PAYLOAD,2024-03-29 20:44:01,14.98335162,0.0003002,69.999,134.1399,270.643,89.4385,-2.0652e-05,-3.39e-06,0.0,0 STARLINK-5324,1 55677U 23021BB  24089.86390320 -.00000339  00000-0 -20652-4 0  9998,2 55677  69.9990 134.1399 0003002 270.6430  89.4385 14.98335162 63155,6950.177,96.107,574.128,569.955,0.0
55677.0,STARLINK-5324,PAYLOAD,2024-03-30 12:45:20,14.9834471,0.0003042,69.9987,132.4567,270.4257,89.6553,-1.608e-05,-2.85e-06,0.0,0 STARLINK-5324,1 55677U 23021BB  24090.53149250 -.00000285  00000-0 -16080-4 0  9998,2 55677  69.9987 132.4567 0003042 270.4257  89.6553 14.98344710 63257,6950.147,96.106,574.127,569.898,0.0
55677.0,STARLINK-5324,PAYLOAD,2024-03-31 12:47:20,14.9834254,0.0002992,69.9986,129.9317,270.8228,89.2588,0.00016103,1.829e-05,0.0,0 STARLINK-5324,1 55677U 23021BB  24091.53288184  .00001829  00000-0  16103-3 0  9997,2 55677  69.9986 129.9317 0002992 270.8228  89.2588 14.98342540 63405,6950.154,96.106,574.099,569.94,0.0
55677.0,STARLINK-5324,PAYLOAD,2024-03-31 19:11:53,14.98334162,0.0002923,69.9987,129.2582,271.2706,88.8118,4.9403e-05,4.97e-06,0.0,0 STARLINK-5324,1 55677U 23021BB  24091.79992854  .00000497  00000-0  49403-4 0  9991,2 55677  69.9987 129.2582 0002923 271.2706  88.8118 14.98334162 63442,6950.18,96.107,574.077,570.013,0.0
55677.0,STARLINK-5324,PAYLOAD,2024-04-01 03:12:34,14.98332153,0.0002782,69.999,128.4171,270.7923,89.2917,-0.00013458,-1.698e-05,0.0,0 STARLINK-5324,1 55677U 23021BB  24092.13373431 -.00001698  00000-0 -13458-3 0  9990,2 55677  69.9990 128.4171 0002782 270.7923  89.2917 14.98332153 63494,6950.186,96.107,573.985,570.118,0.0
55677.0,STARLINK-5324,PAYLOAD,2024-04-01 12:49:22,14.98330547,0.0002714,69.9992,127.4076,269.2232,90.8616,-0.00010189,-1.308e-05,0.0,0 STARLINK-5324,1 55677U 23021BB  24092.53429357 -.00001308  00000-0 -10189-3 0  9999,2 55677  69.9992 127.4076 0002714 269.2232  90.8616 14.98330547 63859,6950.191,96.107,573.942,570.17,0.0
55677.0,STARLINK-5324,PAYLOAD,2024-04-01 19:13:54,14.98356039,0.0002852,69.999,126.7346,269.2341,90.8491,-0.00046868,-5.684e-05,0.0,0 STARLINK-5324,1 55677U 23021BB  24092.80132422 -.00005684  00000-0 -46868-3 0  9997,2 55677  69.9990 126.7346 0002852 269.2341  90.8491 14.98356039 63599,6950.112,96.105,573.96,569.995,0.0
55677.0,STARLINK-5324,PAYLOAD,2024-04-02 11:15:14,14.98338852,0.0002788,69.9987,125.0508,265.9069,94.1771,-6.1626e-05,-8.28e-06,0.0,0 STARLINK-5324,1 55677U 23021BB  24093.46892274 -.00000828  00000-0 -61626-4 0  9993,2 55677  69.9987 125.0508 0002788 265.9069  94.1771 14.98338852 63697,6950.166,96.106,573.968,570.093,0.0
55677.0,STARLINK-5324,PAYLOAD,2024-04-02 19:15:55,14.98334644,0.0002752,69.9987,124.2088,269.145,90.9394,-4.2793e-05,-6.04e-06,0.0,0 STARLINK-5324,1 55677U 23021BB  24093.80272377 -.00000604  00000-0 -42793-4 0  9993,2 55677  69.9987 124.2088 0002752 269.1450  90.9394 14.98334644 64042,6950.179,96.107,573.956,570.131,0.0
55677.0,STARLINK-5324,PAYLOAD,2024-04-03 03:16:35,14.98325403,0.0002851,69.9983,123.3663,269.6122,90.471,4.4528e-05,4.38e-06,0.0,0 STARLINK-5324,1 55677U 23021BB  24094.13652666  .00000438  00000-0  44528-4 0  9994,2 55677  69.9983 123.3663 0002851 269.6122  90.4710 14.98325403 63799,6950.207,96.107,574.054,570.091,0.0
55677.0,STARLINK-5324,PAYLOAD,2024-04-03 11:17:16,14.9832626,0.000289,69.9982,122.5249,269.2086,90.8742,2.8538e-05,2.47e-06,0.0,0 STARLINK-5324,1 55677U 23021BB  24094.47032710  .00000247  00000-0  28538-4 0  9994,2 55677  69.9982 122.5249 0002890 269.2086  90.8742 14.98326260 64148,6950.204,96.107,574.078,570.061,0.0
55677.0,STARLINK-5324,PAYLOAD,2024-04-03 19:17:56,14.98329283,0.0002904,69.998,121.683,269.4006,90.6821,1.1548e-05,4.5e-07,0.0,0 STARLINK-5324,1 55677U 23021BB  24094.80412587  .00000045  00000-0  11548-4 0  9994,2 55677  69.9980 121.6830 0002904 269.4006  90.6821 14.98329283 64191,6950.195,96.107,574.078,570.042,0.0
55677.0,STARLINK-5324,PAYLOAD,2024-04-04 04:54:44,14.98332584,0.0002904,69.9981,120.6732,269.435,90.6476,-5.2234e-06,-1.55e-06,0.0,0 STARLINK-5324,1 55677U 23021BB  24095.20468371 -.00000155  00000-0 -52234-5 0  9993,2 55677  69.9981 120.6732 0002904 269.4350  90.6476 14.98332584 63951,6950.185,96.107,574.068,570.032,0.0
55677.0,STARLINK-5324,PAYLOAD,2024-04-04 11:19:16,14.98333038,0.000292,69.9981,120.0,269.7591,90.3233,-1.551e-05,-2.78e-06,0.0,0 STARLINK-5324,1 55677U 23021BB  24095.47172323 -.00000278  00000-0 -15510-4 0  9992,2 55677  69.9981 120.0000 0002920 269.7591  90.3233 14.98333038 64292,6950.183,96.107,574.078,570.019,0.0
55677.0,STARLINK-5324,PAYLOAD,2024-04-05 11:21:17,14.98331178,0.0002964,69.9979,117.4749,269.8143,90.2677,2.9498e-05,2.59e-06,0.0,0 STARLINK-5324,1 55677U 23021BB  24096.47312174  .00000259  00000-0  29498-4 0  9990,2 55677  69.9979 117.4749 0002964 269.8143  90.2677 14.98331178 64149,6950.189,96.107,574.114,569.994,0.0
55677.0,STARLINK-5324,PAYLOAD,2024-04-06 11:23:18,14.98326197,0.0002732,69.9982,114.95,264.6443,95.4405,7.6869e-05,8.24e-06,0.0,0 STARLINK-5324,1 55677U 23021BB  24097.47452288  .00000824  00000-0  76869-4 0  9994,2 55677  69.9982 114.9500 0002732 264.6443  95.4405 14.98326197 64296,6950.205,96.107,573.968,570.171,0.0
55677.0,STARLINK-5324,PAYLOAD,2024-04-06 17:47:51,14.98333669,0.0002841,69.9983,114.2766,276.3228,83.7608,-8.7738e-05,-1.14e-05,0.0,0 STARLINK-5324,1 55677U 23021BB  24097.74156272 -.00001140  00000-0 -87738-4 0  9999,2 55677  69.9983 114.2766 0002841 276.3228  83.7608 14.98333669 64631,6950.182,96.107,574.021,570.072,0.0
55677.0,STARLINK-5324,PAYLOAD,2024-04-07 09:49:12,14.98323307,0.0002533,69.999,112.5935,262.4154,97.6717,-4.6803e-05,-6.51e-06,0.0,0 STARLINK-5324,1 55677U 23021BB  24098.40916891 -.00000651  00000-0 -46803-4 0  9998,2 55677  69.9990 112.5935 0002533 262.4154  97.6717 14.98323307 64734,6950.214,96.107,573.839,570.318,0.0
55677.0,STARLINK-5324,PAYLOAD,2024-04-07 17:49:52,14.98335788,0.0002873,69.9985,111.7518,270.1596,89.9233,-0.00018668,-2.32e-05,0.0,0 STARLINK-5324,1 55677U 23021BB  24098.74296439 -.00002320  00000-0 -18668-3 0  9996,2 55677  69.9985 111.7518 0002873 270.1596  89.9233 14.98335788 64484,6950.175,96.107,574.037,570.043,0.0
55677.0,STARLINK-5324,PAYLOAD,2024-04-08 11:27:20,14.98329152,0.0002958,69.9983,109.8997,270.8755,89.2065,-4.5444e-06,-1.47e-06,0.0,0 STARLINK-5324,1 55677U 23021BB  24099.47732445 -.00000147  00000-0 -45444-5 0  9998,2 55677  69.9983 109.8997 0002958 270.8755  89.2065 14.98329152 64898,6950.196,96.107,574.116,570.005,0.0
55677.0,STARLINK-5324,PAYLOAD,2024-04-08 17:51:52,14.98338845,0.000299,69.9984,109.2266,272.2012,87.8805,-0.00014225,-1.79e-05,0.0,0 STARLINK-5324,1 55677U 23021BB  24099.74436119 -.00001790  00000-0 -14225-3 0  9993,2 55677  69.9984 109.2266 0002990 272.2012  87.8805 14.98338845 64637,6950.166,96.106,574.109,569.952,0.0
55677.0,STARLINK-5324,PAYLOAD,2024-04-09 00:16:25,14.9832983,0.0002997,69.9981,108.5529,269.997,90.0845,5.4344e-05,5.55e-06,0.0,0 STARLINK-5324,1 55677U 23021BB  24100.01140233  .00000555  00000-0  54344-4 0  9998,2 55677  69.9981 108.5529 0002997 269.9970  90.0845 14.98329830 64972,6950.193,96.107,574.141,569.975,0.0
55677.0,STARLINK-5324,PAYLOAD,2024-04-09 09:53:13,14.98330853,0.000306,69.998,107.5429,270.9121,89.1687,7.0644e-05,7.5e-06,0.0,0 STARLINK-5324,1 55677U 23021BB  24100.41196104  .00000750  00000-0  70644-4 0  9998,2 55677  69.9980 107.5429 0003060 270.9121  89.1687 14.98330853 65039,6950.19,96.107,574.182,569.928,0.0
55677.0,STARLINK-5324,PAYLOAD,2024-04-09 17:53:54,14.98318386,0.0002933,69.9981,106.7013,263.5886,96.4939,0.00022607,2.605e-05,0.0,0 STARLINK-5324,1 55677U 23021BB  24100.74576525  .00002605  00000-0  22607-3 0  9999,2 55677  69.9981 106.7013 0002933 263.5886  96.4939 14.98318386 64783,6950.229,96.108,574.132,570.055,0.0
55677.0,STARLINK-5324,PAYLOAD,2024-04-10 09:55:14,14.98330938,0.0003044,69.9981,105.0179,270.5597,89.5213,1.927e-05,1.37e-06,0.0,0 STARLINK-5324,1 55677U 23021BB  24101.41336154  .00000137  00000-0  19270-4 0  9997,2 55677  69.9981 105.0179 0003044 270.5597  89.5213 14.98330938 64885,6950.19,96.107,574.171,569.939,0.0
55677.0,STARLINK-5324,PAYLOAD,2024-04-10 17:55:54,14.9833087,0.0003044,69.9982,104.1762,270.6096,89.4714,5.6219e-06,-2.6e-07,0.0,0 STARLINK-5324,1 55677U 23021BB  24101.74716150 -.00000026  00000-0  56219-5 0  9994,2 55677  69.9982 104.1762 0003044 270.6096  89.4714 14.98330870 65239,6950.19,96.107,574.171,569.94,0.0
